{
    "creator": "Satellites plugin version 0.12.0",
    "hintColor": [
        0.4,
        0.4,
        0.4
    ],
    "satellites": {
        "13080": {
            "comms": [
            ],
            "groups": [
                "cosmos",
                "military"
            ],
            "lastUpdated": "2020-09-23T23:14:25",
            "name": "COSMOS 1341",
            "orbitVisible": false,
            "rcs": 7.89,
            "stdMag": 5,
            "tle1": "1 13080U 82016A   20266.83397609  .00000516  00000-0  00000+0 0  9991",
            "tle2": "2 13080  67.5845 136.3324 6596123  12.8513 358.2012  2.00716672192816",
            "visible": true
        },
        "13090": {
            "comms": [
            ],
            "groups": [
            ],
            "lastUpdated": "2020-09-23T23:14:25",
            "name": "SL-6 R/B(2)",
            "orbitVisible": false,
            "rcs": 5.04,
            "stdMag": 4.5,
            "tle1": "1 13090U 82016D   20266.47126142  .00000550  00000-0  00000-0 0  9993",
            "tle2": "2 13090  65.9924  28.5388 7002333  11.9964 358.3211  2.03147545286035",
            "visible": true
        },
        "13092": {
            "comms": [
            ],
            "groups": [
                "geostationary",
                "gorizont",
                "communications"
            ],
            "lastUpdated": "2020-09-23T23:14:25",
            "name": "GORIZONT 5",
            "orbitVisible": false,
            "rcs": 2.24,
            "status": 2,
            "tle1": "1 13092U 82020A   20264.99430025  .00000009  00000-0  00000-0 0  9992",
            "tle2": "2 13092  12.8525 320.8684 0031943 194.7296 264.5308  0.98530225100956",
            "visible": true
        },
        "13129": {
            "comms": [
            ],
            "groups": [
            ],
            "lastUpdated": "2020-09-23T23:14:25",
            "name": "INSAT-1A",
            "orbitVisible": false,
            "rcs": 0.51,
            "tle1": "1 13129U 82031A   20266.28452119  .00000111  00000-0  00000-0 0  9991",
            "tle2": "2 13129  11.6820 318.3690 0009221  12.4494 175.5892  1.00336482145424",
            "visible": true
        },
        "13154": {
            "comms": [
            ],
            "groups": [
                "visual"
            ],
            "lastUpdated": "2020-09-23T23:14:25",
            "name": "SL-3 R/B",
            "orbitVisible": false,
            "rcs": 5.84,
            "stdMag": 4,
            "tle1": "1 13154U 82039B   20267.13965588  .00000068  00000-0  37519-5 0  9992",
            "tle2": "2 13154  81.1840 321.9798 0040087   4.9564 355.2043 14.98769046 82550",
            "visible": false
        },
        "1317": {
            "comms": [
            ],
            "groups": [
                "intelsat",
                "communications"
            ],
            "lastUpdated": "2020-09-23T23:14:25",
            "name": "INTELSAT 1-F1",
            "orbitVisible": false,
            "rcs": 0.79,
            "tle1": "1 01317U 65028A   20266.62917517  .00000116  00000-0  00000-0 0  9995",
            "tle2": "2 01317   2.1253  75.7332 0005051  80.1296 276.9447  1.00244610106173",
            "visible": true
        },
        "13172": {
            "comms": [
            ],
            "groups": [
            ],
            "lastUpdated": "2020-09-23T23:14:25",
            "name": "KH 9-17 Elint",
            "orbitVisible": false,
            "stdMag": 7,
            "tle1": "1 13172U 82041C   20266.77456243 0.00000118  00000-0  12346-4 0    06",
            "tle2": "2 13172  95.9596 125.3751 0000288 176.3245 183.6782 14.89717553    04",
            "visible": true
        },
        "13177": {
            "comms": [
            ],
            "groups": [
                "cosmos"
            ],
            "lastUpdated": "2020-09-23T23:14:25",
            "name": "COSMOS 1366",
            "orbitVisible": false,
            "rcs": 0.17,
            "tle1": "1 13177U 82044A   20266.88691253 -.00000164  00000-0  00000-0 0  9997",
            "tle2": "2 13177  12.8514 319.2457 0007874  73.2903   9.5704  1.00261220112624",
            "visible": true
        },
        "1318": {
            "comms": [
            ],
            "groups": [
            ],
            "lastUpdated": "2020-09-23T23:14:25",
            "name": "DELTA 1 R/B(2)",
            "orbitVisible": false,
            "rcs": 0.74,
            "stdMag": 7.5,
            "tle1": "1 01318U 65028B   20266.98838538 -.00000034  00000-0  00000+0 0  9999",
            "tle2": "2 01318  17.3990 124.3154 6954704 160.4414 229.3930  2.11821684214197",
            "visible": true
        },
        "13295": {
            "comms": [
            ],
            "groups": [
                "cosmos",
                "military"
            ],
            "lastUpdated": "2020-09-23T23:14:25",
            "name": "COSMOS 1382",
            "orbitVisible": false,
            "rcs": 7.97,
            "tle1": "1 13295U 82064A   20266.13805447 -.00000897  00000-0  00000-0 0  9993",
            "tle2": "2 13295  66.5439   0.7176 6279999  47.0271 350.7542  2.00762272238555",
            "visible": true
        },
        "13403": {
            "comms": [
            ],
            "groups": [
                "visual"
            ],
            "lastUpdated": "2020-09-23T23:14:25",
            "name": "SL-3 R/B",
            "orbitVisible": false,
            "rcs": 6.19,
            "stdMag": 3.5,
            "tle1": "1 13403U 82079B   20266.92924521 -.00000283  00000-0 -20153-4 0  9997",
            "tle2": "2 13403  81.1709 341.3041 0031689 302.6179  57.1987 15.07208383 76298",
            "visible": false
        },
        "13431": {
            "comms": [
            ],
            "groups": [
            ],
            "lastUpdated": "2020-09-23T23:14:25",
            "name": "ANIK D1 (TELESAT 6)",
            "orbitVisible": false,
            "rcs": 1.59,
            "tle1": "1 13431U 82082A   20267.44632692 -.00000053  00000-0  00000+0 0  9993",
            "tle2": "2 13431  14.4404 349.4046 0004997 310.6612  37.4678  1.00140580 72653",
            "visible": true
        },
        "13552": {
            "comms": [
            ],
            "groups": [
                "cosmos"
            ],
            "lastUpdated": "2020-09-23T23:14:25",
            "name": "COSMOS 1408",
            "orbitVisible": false,
            "rcs": 8.29,
            "stdMag": 3.5,
            "tle1": "1 13552U 82092A   20266.86985126  .00000786  00000-0  27309-4 0  9994",
            "tle2": "2 13552  82.5703 181.1187 0018671 144.9576 215.2896 15.27957511 78921",
            "visible": true
        },
        "13553": {
            "comms": [
            ],
            "groups": [
            ],
            "lastUpdated": "2020-09-23T23:14:25",
            "name": "SL-14 R/B",
            "orbitVisible": false,
            "rcs": 4.4,
            "stdMag": 4,
            "tle1": "1 13553U 82092B   20267.41771674  .00000068  00000-0  51232-5 0  9994",
            "tle2": "2 13553  82.5713 201.3170 0022803  60.1606  79.0846 14.84240261 54176",
            "visible": true
        },
        "13554": {
            "comms": [
            ],
            "groups": [
            ],
            "lastUpdated": "2020-09-21T22:00:51",
            "name": "EKRAN 9",
            "orbitVisible": false,
            "rcs": 0.5,
            "tle1": "1 13554U 82093A   20264.76073721  .00000094  00000-0  00000+0 0  9999",
            "tle2": "2 13554  11.5950 319.0127 0025539 321.2092  41.5121  1.00301121 98973",
            "visible": true
        },
        "1361": {
            "comms": [
            ],
            "groups": [
            ],
            "lastUpdated": "2020-09-23T23:14:25",
            "name": "LCS 1",
            "orbitVisible": false,
            "rcs": 0.79,
            "stdMag": 6,
            "tle1": "1 01361U 65034C   20266.88875480 -.00000002  00000-0 -13831-2 0  9995",
            "tle2": "2 01361  32.1397 107.1966 0006173 140.7438 219.3507  9.89297933  2583",
            "visible": true
        },
        "13624": {
            "comms": [
            ],
            "groups": [
                "geostationary",
                "gorizont",
                "communications"
            ],
            "lastUpdated": "2020-09-23T23:14:25",
            "name": "GORIZONT 6",
            "orbitVisible": false,
            "rcs": 3.98,
            "tle1": "1 13624U 82103A   20266.20514167 -.00000242  00000-0  00000-0 0  9991",
            "tle2": "2 13624  11.7448 320.7742 0000235  88.5756 355.6076  1.00274256 99958",
            "visible": true
        },
        "13630": {
            "comms": [
            ],
            "groups": [
            ],
            "lastUpdated": "2020-09-23T23:14:25",
            "name": "SL-12 R/B(2)",
            "orbitVisible": false,
            "rcs": 1.79,
            "tle1": "1 13630U 82103E   20266.61528932  .00000037  00000-0  00000-0 0  9999",
            "tle2": "2 13630  11.7034 320.6946 0012933 131.3443 312.1566  1.00333414100495",
            "visible": true
        },
        "13631": {
            "comms": [
            ],
            "groups": [
            ],
            "lastUpdated": "2020-09-23T23:14:25",
            "name": "SATCOM C5",
            "orbitVisible": false,
            "rcs": 7.53,
            "tle1": "1 13631U 82105A   20266.32999991 -.00000120  00000-0  00000-0 0  9991",
            "tle2": "2 13631  14.3666 348.9513 0005258  33.2272 352.4560  1.00272060105384",
            "visible": true
        }
    },
    "shortName": "satellite orbital data",
    "version": "0.12.0"
}
